*******************************************************************************
 Revised: July 31, 2013             Moon / (Earth)                          301
 
 GEOPHYSICAL DATA (updated 2018-Aug-15):
  Vol. mean radius, km  = 1737.53+-0.03    Mass, x10^22 kg       =    7.349
  Radius (gravity), km  = 1738.0           Surface emissivity    =    0.92
  Radius (IAU), km      = 1737.4           GM, km^3/s^2          = 4902.800066
  Density, g/cm^3       =    3.3437        GM 1-sigma, km^3/s^2  =  +-0.0001  
  V(1,0)                =   +0.21          Surface accel., m/s^2 =    1.62
  Earth/Moon mass ratio = 81.3005690769    Farside crust. thick. = ~80 - 90 km
  Mean crustal density  = 2.97+-.07 g/cm^3 Nearside crust. thick.= 58+-8 km 
  Heat flow, Apollo 15  = 3.1+-.6 mW/m^2   Mean angular diameter = 31'05.2"
  Heat flow, Apollo 17  = 2.2+-.5 mW/m^2   Sid. rot. rate, rad/s = 0.0000026617
  Geometric Albedo      = 0.12             Mean solar day        = 29.5306 d
  Obliquity to orbit    = 6.67 deg         Orbit period          = 27.321582 d
  Semi-major axis, a    = 384400 km        Eccentricity          = 0.05490
  Mean motion, rad/s    = 2.6616995x10^-6  Inclination           = 5.145 deg
  Apsidal period        = 3231.50 d        Nodal period          = 6798.38 d
                                 Perihelion  Aphelion    Mean
  Solar Constant (W/m^2)         1414+-7     1323+-7     1368+-7
  Maximum Planetary IR (W/m^2)   1314        1226        1268
  Minimum Planetary IR (W/m^2)      5.2         5.2         5.2
********************************************************************************


*******************************************************************************
Ephemeris / WWW_USER Sun Dec  5 18:26:43 2021 Pasadena, USA      / Horizons    
*******************************************************************************
Target body name: Moon (301)                      {source: DE441}
Center body name: Earth (399)                     {source: DE441}
Center-site name: GEOCENTRIC
*******************************************************************************
Start time      : A.D. 1970-Jan-01 00:00:00.0000 UT      
Stop  time      : A.D. 2050-Jan-01 00:00:00.0000 UT      
Step-size       : 7200 minutes
*******************************************************************************
Target pole/equ : MOON_ME                         {East-longitude positive}
Target radii    : 1737.4 x 1737.4 x 1737.4 km     {Equator, meridian, pole}    
Center geodetic : 0.00000000,0.00000000,0.0000000 {E-lon(deg),Lat(deg),Alt(km)}
Center cylindric: 0.00000000,0.00000000,0.0000000 {E-lon(deg),Dxy(km),Dz(km)}
Center pole/equ : ITRF93                          {East-longitude positive}
Center radii    : 6378.1 x 6378.1 x 6356.8 km     {Equator, meridian, pole}    
Target primary  : Earth
Vis. interferer : MOON (R_eq= 1737.400) km        {source: DE441}
Rel. light bend : Sun, EARTH                      {source: DE441}
Rel. lght bnd GM: 1.3271E+11, 3.9860E+05 km^3/s^2                              
Atmos refraction: NO (AIRLESS)
RA format       : DEG
Time format     : BOTH
EOP file        : eop.211202.p220225                                           
EOP coverage    : DATA-BASED 1962-JAN-20 TO 2021-DEC-02. PREDICTS-> 2022-FEB-24
Units conversion: 1 au= 149597870.700 km, c= 299792.458 km/s, 1 day= 86400.0 s 
Table cut-offs 1: Elevation (-90.0deg=NO ),Airmass (>38.000=NO), Daylight (NO )
Table cut-offs 2: Solar elongation (  0.0,180.0=NO ),Local Hour Angle( 0.0=NO )
Table cut-offs 3: RA/DEC angular rate (     0.0=NO )                           
*******************************************************************************
 Date__(UT)__HR:MN Date_________JDUT     N.Pole-RA  N.Pole-DC
*************************************************************
$$SOE
 1996-Jan-05 00:00 2450087.500000000     271.40054   65.09075
 1996-Jan-10 00:00 2450092.500000000     271.45965   65.11940
 1996-Jan-15 00:00 2450097.500000000     271.39993   65.15328
 1996-Jan-20 00:00 2450102.500000000     271.30109   65.14922
 1996-Jan-25 00:00 2450107.500000000     271.23962   65.11908
 1996-Jan-30 00:00 2450112.500000000     271.26850   65.08215
 1996-Feb-04 00:00 2450117.500000000     271.35566   65.08698
 1996-Feb-09 00:00 2450122.500000000     271.35515   65.12678
 1996-Feb-14 00:00 2450127.500000000     271.26255   65.14242
 1996-Feb-19 00:00 2450132.500000000     271.17764   65.12497
 1996-Feb-24 00:00 2450137.500000000     271.15259   65.08669
 1996-Feb-29 00:00 2450142.500000000     271.22609   65.06598
 1996-Mar-05 00:00 2450147.500000000     271.28143   65.09496
 1996-Mar-10 00:00 2450152.500000000     271.22257   65.12718
 1996-Mar-15 00:00 2450157.500000000     271.12798   65.12484
 1996-Mar-20 00:00 2450162.500000000     271.06407   65.09600
 1996-Mar-25 00:00 2450167.500000000     271.09171   65.05928
 1996-Mar-30 00:00 2450172.500000000     271.17566   65.06508
 1996-Apr-04 00:00 2450177.500000000     271.17097   65.10331
 1996-Apr-09 00:00 2450182.500000000     271.08271   65.11795
 1996-Apr-14 00:00 2450187.500000000     270.99848   65.10220
 1996-Apr-19 00:00 2450192.500000000     270.97314   65.06395
 1996-Apr-24 00:00 2450197.500000000     271.04656   65.04426
 1996-Apr-29 00:00 2450202.500000000     271.09759   65.07337
 1996-May-04 00:00 2450207.500000000     271.03879   65.10378
 1996-May-09 00:00 2450212.500000000     270.94683   65.10239
 1996-May-14 00:00 2450217.500000000     270.88150   65.07353
 1996-May-19 00:00 2450222.500000000     270.91200   65.03688
 1996-May-24 00:00 2450227.500000000     270.99508   65.04398
 1996-May-29 00:00 2450232.500000000     270.98878   65.08151
 1996-Jun-03 00:00 2450237.500000000     270.90321   65.09624
 1996-Jun-08 00:00 2450242.500000000     270.81657   65.08173
 1996-Jun-13 00:00 2450247.500000000     270.79206   65.04245
 1996-Jun-18 00:00 2450252.500000000     270.86795   65.02387
 1996-Jun-23 00:00 2450257.500000000     270.91725   65.05333
 1996-Jun-28 00:00 2450262.500000000     270.86121   65.08337
 1996-Jul-03 00:00 2450267.500000000     270.77014   65.08403
 1996-Jul-08 00:00 2450272.500000000     270.70079   65.05537
 1996-Jul-13 00:00 2450277.500000000     270.73315   65.01883
 1996-Jul-18 00:00 2450282.500000000     270.81438   65.02686
 1996-Jul-23 00:00 2450287.500000000     270.80850   65.06309
 1996-Jul-28 00:00 2450292.500000000     270.72853   65.07894
 1996-Aug-02 00:00 2450297.500000000     270.63975   65.06694
 1996-Aug-07 00:00 2450302.500000000     270.61261   65.02796
 1996-Aug-12 00:00 2450307.500000000     270.68603   65.01054
 1996-Aug-17 00:00 2450312.500000000     270.73085   65.03858
 1996-Aug-22 00:00 2450317.500000000     270.68063   65.06687
 1996-Aug-27 00:00 2450322.500000000     270.59451   65.07015
 1996-Sep-01 00:00 2450327.500000000     270.52212   65.04365
 1996-Sep-06 00:00 2450332.500000000     270.55090   65.00851
 1996-Sep-11 00:00 2450337.500000000     270.62442   65.01637
 1996-Sep-16 00:00 2450342.500000000     270.61778   65.04882
 1996-Sep-21 00:00 2450347.500000000     270.54720   65.06462
 1996-Sep-26 00:00 2450352.500000000     270.46074   65.05548
 1996-Oct-01 00:00 2450357.500000000     270.43101   65.01856
 1996-Oct-06 00:00 2450362.500000000     270.49752   65.00252
 1996-Oct-11 00:00 2450367.500000000     270.53518   65.02777
 1996-Oct-16 00:00 2450372.500000000     270.49091   65.05278
 1996-Oct-21 00:00 2450377.500000000     270.41170   65.05794
 1996-Oct-26 00:00 2450382.500000000     270.34043   65.03345
 1996-Oct-31 00:00 2450387.500000000     270.36640   65.00045
 1996-Nov-05 00:00 2450392.500000000     270.43194   65.00805
 1996-Nov-10 00:00 2450397.500000000     270.42456   65.03683
 1996-Nov-15 00:00 2450402.500000000     270.36176   65.05238
 1996-Nov-20 00:00 2450407.500000000     270.27732   65.04503
 1996-Nov-25 00:00 2450412.500000000     270.24926   65.00971
 1996-Nov-30 00:00 2450417.500000000     270.31153   64.99531
 1996-Dec-05 00:00 2450422.500000000     270.34482   65.01860
 1996-Dec-10 00:00 2450427.500000000     270.30580   65.04189
 1996-Dec-15 00:00 2450432.500000000     270.22973   65.04912
 1996-Dec-20 00:00 2450437.500000000     270.15891   65.02550
 1996-Dec-25 00:00 2450442.500000000     270.18488   64.99451
 1996-Dec-30 00:00 2450447.500000000     270.24504   65.00203
 1997-Jan-04 00:00 2450452.500000000     270.23980   65.02845
 1997-Jan-09 00:00 2450457.500000000     270.18327   65.04523
 1997-Jan-14 00:00 2450462.500000000     270.09734   65.04020
 1997-Jan-19 00:00 2450467.500000000     270.06896   65.00636
 1997-Jan-24 00:00 2450472.500000000     270.12581   64.99327
 1997-Jan-29 00:00 2450477.500000000     270.15604   65.01381
 1997-Feb-03 00:00 2450482.500000000     270.12518   65.03599
 1997-Feb-08 00:00 2450487.500000000     270.05304   65.04631
 1997-Feb-13 00:00 2450492.500000000     269.97927   65.02513
 1997-Feb-18 00:00 2450497.500000000     269.99979   64.99640
 1997-Feb-23 00:00 2450502.500000000     270.05085   65.00213
 1997-Feb-28 00:00 2450507.500000000     270.04963   65.02426
 1997-Mar-05 00:00 2450512.500000000     270.00370   65.04214
 1997-Mar-10 00:00 2450517.500000000     269.91931   65.04082
 1997-Mar-15 00:00 2450522.500000000     269.88604   65.01009
 1997-Mar-20 00:00 2450527.500000000     269.93131   64.99765
 1997-Mar-25 00:00 2450532.500000000     269.95641   65.01305
 1997-Mar-30 00:00 2450537.500000000     269.93670   65.03242
 1997-Apr-04 00:00 2450542.500000000     269.87300   65.04555
 1997-Apr-09 00:00 2450547.500000000     269.79914   65.02811
 1997-Apr-14 00:00 2450552.500000000     269.81111   65.00221
 1997-Apr-19 00:00 2450557.500000000     269.85078   65.00531
 1997-Apr-24 00:00 2450562.500000000     269.85345   65.02209
 1997-Apr-29 00:00 2450567.500000000     269.81902   65.04048
 1997-May-04 00:00 2450572.500000000     269.73943   65.04208
 1997-May-09 00:00 2450577.500000000     269.70428   65.01496
 1997-May-14 00:00 2450582.500000000     269.73900   65.00333
